1 44883U 19093E   23133.69123506  .00002090  00000+0  27320-3 0  9990
2 44883  97.8625 212.7809 0000557  98.7958  21.7925 14.81506505183685